NORAD_CAT_ID,OBJECT_NAME,OBJECT_TYPE,EPOCH,MEAN_MOTION,ECCENTRICITY,INCLINATION,RA_OF_ASC_NODE,ARG_OF_PERICENTER,MEAN_ANOMALY,BSTAR,MEAN_MOTION_DOT,MEAN_MOTION_DDOT,TLE_LINE0,TLE_LINE1,TLE_LINE2,SEMIMAJOR_AXIS,PERIOD,APOGEE,PERIGEE,DECAYED
55668.0,STARLINK-5455,PAYLOAD,2024-08-06 14:47:28,14.98327065,0.0002857,70.0,187.0878,262.8469,97.2365,-3.8215e-05,-5.49e-06,0.0,0 STARLINK-5455,1 55668U 23021AS  24219.61630549 -.00000549  00000-0 -38215-4 0  9993,2 55668  70.0000 187.0878 0002857 262.8469  97.2365 14.98327065 82396,6950.202,96.107,574.053,570.081,0.0
55668.0,STARLINK-5455,PAYLOAD,2024-08-07 03:36:32,14.9833436,0.0002872,69.9998,185.7397,267.5746,92.5084,6.492e-05,6.82e-06,0.0,0 STARLINK-5455,1 55668U 23021AS  24220.15037805  .00000682  00000-0  64920-4 0  9998,2 55668  69.9998 185.7397 0002872 267.5746  92.5084 14.98334360 82175,6950.179,96.107,574.04,570.048,0.0
55668.0,STARLINK-5455,PAYLOAD,2024-08-08 06:50:50,14.98315718,0.000243,70.0014,182.8785,262.1478,97.9405,0.00039031,4.565e-05,0.0,0 STARLINK-5455,1 55668U 23021AS  24221.28530298  .00004565  00000-0  39031-3 0  9995,2 55668  70.0014 182.8785 0002430 262.1478  97.9405 14.98315718 82643,6950.237,96.108,573.791,570.413,0.0
55668.0,STARLINK-5455,PAYLOAD,2024-08-08 21:16:02,14.98336109,0.0002476,70.0017,181.3631,264.4884,95.5992,5.5542e-05,5.7e-06,0.0,0 STARLINK-5455,1 55668U 23021AS  24221.88613671  .00000570  00000-0  55542-4 0  9996,2 55668  70.0017 181.3631 0002476 264.4884  95.5992 14.98336109 82435,6950.174,96.107,573.76,570.318,0.0
55668.0,STARLINK-5455,PAYLOAD,2024-08-08 22:52:10,14.98336014,0.0002577,70.0007,181.1969,256.167,103.9202,-8.216e-06,-1.91e-06,0.0,0 STARLINK-5455,1 55668U 23021AS  24221.95289768 -.00000191  00000-0 -82160-5 0  9998,2 55668  70.0007 181.1969 0002577 256.1670 103.9202 14.98336014 82746,6950.174,96.107,573.83,570.248,0.0
55668.0,STARLINK-5455,PAYLOAD,2024-08-09 05:16:42,14.9833763,0.0002678,70.0001,180.5224,265.3054,94.78,2.2387e-05,1.74e-06,0.0,0 STARLINK-5455,1 55668U 23021AS  24222.21993534  .00000174  00000-0  22387-4 0  9994,2 55668  70.0001 180.5224 0002678 265.3054  94.7800 14.98337630 82787,6950.169,96.107,573.896,570.173,0.0
55668.0,STARLINK-5455,PAYLOAD,2024-08-09 21:18:03,14.98329607,0.0002467,70.0024,178.8377,269.1667,90.9209,-3.1901e-05,-4.73e-06,0.0,0 STARLINK-5455,1 55668U 23021AS  24222.88754145 -.00000473  00000-0 -31901-4 0  9996,2 55668  70.0024 178.8377 0002467 269.1667  90.9209 14.98329607 82583,6950.194,96.107,573.774,570.344,0.0
55668.0,STARLINK-5455,PAYLOAD,2024-08-10 03:42:35,14.98328862,0.0002606,70.001,178.1651,268.5461,91.54,-3.4851e-05,-5.09e-06,0.0,0 STARLINK-5455,1 55668U 23021AS  24223.15458125 -.00000509  00000-0 -34851-4 0  9993,2 55668  70.0010 178.1651 0002606 268.5461  91.5400 14.98328862 82926,6950.196,96.107,573.873,570.25,0.0
55668.0,STARLINK-5455,PAYLOAD,2024-08-10 21:20:04,14.9833,0.0002736,70.0009,176.3136,266.8306,93.254,5.4054e-05,5.52e-06,0.0,0 STARLINK-5455,1 55668U 23021AS  24223.88893709  .00000552  00000-0  54054-4 0  9997,2 55668  70.0009 176.3136 0002736 266.8306  93.2540 14.98330000 82735,6950.193,96.107,573.959,570.156,0.0
55668.0,STARLINK-5455,PAYLOAD,2024-08-10 22:56:12,14.98331189,0.0002785,70.0006,176.1453,268.6923,91.3917,2.2666e-05,1.77e-06,0.0,0 STARLINK-5455,1 55668U 23021AS  24223.95569732  .00000177  00000-0  22666-4 0  9998,2 55668  70.0006 176.1453 0002785 268.6923  91.3917 14.98331189 83042,6950.189,96.107,573.99,570.119,0.0
55668.0,STARLINK-5455,PAYLOAD,2024-08-11 06:56:51,14.983391,0.0002766,70.001,175.3065,267.2048,92.8794,0.00010162,1.12e-05,0.0,0 STARLINK-5455,1 55668U 23021AS  24224.28948983  .00001120  00000-0  10162-3 0  9990,2 55668  70.0010 175.3065 0002766 267.2048  92.8794 14.98339100 82790,6950.165,96.106,573.952,570.107,0.0
55668.0,STARLINK-5455,PAYLOAD,2024-08-11 19:45:56,14.98323326,0.0002937,70.0019,173.9614,267.7419,92.3404,0.0002062,2.368e-05,0.0,0 STARLINK-5455,1 55668U 23021AS  24224.82357575  .00002368  00000-0  20620-3 0  9996,2 55668  70.0019 173.9614 0002937 267.7419  92.3404 14.98323326 82875,6950.214,96.107,574.12,570.037,0.0
55668.0,STARLINK-5455,PAYLOAD,2024-08-11 22:58:13,14.98321459,0.0002923,70.0015,173.6236,269.3855,90.6969,0.00013089,1.469e-05,0.0,0 STARLINK-5455,1 55668U 23021AS  24224.95710011  .00001469  00000-0  13089-3 0  9990,2 55668  70.0015 173.6236 0002923 269.3855  90.6969 14.98321459 83193,6950.219,96.108,574.116,570.053,0.0
55668.0,STARLINK-5455,PAYLOAD,2024-08-12 06:58:52,14.98339273,0.0002805,70.0011,172.7819,257.4365,102.6481,0.00014519,1.64e-05,0.0,0 STARLINK-5455,1 55668U 23021AS  24225.29088784  .00001640  00000-0  14519-3 0  9993,2 55668  70.0011 172.7819 0002805 257.4365 102.6481 14.98339273 82947,6950.164,96.106,573.979,570.08,0.0
55668.0,STARLINK-5455,PAYLOAD,2024-08-12 13:23:24,14.98339866,0.0002727,70.0012,172.1077,265.2555,94.8293,0.00010197,1.124e-05,0.0,0 STARLINK-5455,1 55668U 23021AS  24225.55792781  .00001124  00000-0  10197-3 0  9996,2 55668  70.0012 172.1077 0002727 265.2555  94.8293 14.98339866 83288,6950.162,96.106,573.923,570.132,0.0
55668.0,STARLINK-5455,PAYLOAD,2024-08-12 23:00:12,14.98343031,0.0002755,70.0006,171.097,266.0495,94.035,0.00012697,1.423e-05,0.0,0 STARLINK-5455,1 55668U 23021AS  24225.95848280  .00001423  00000-0  12697-3 0  9995,2 55668  70.0006 171.0970 0002755 266.0495  94.0350 14.98343031 83346,6950.153,96.106,573.932,570.103,0.0
55668.0,STARLINK-5455,PAYLOAD,2024-08-13 05:24:44,14.98349692,0.0002577,70.0009,170.4234,272.1476,87.9388,0.00015004,1.699e-05,0.0,0 STARLINK-5455,1 55668U 23021AS  24226.22551483  .00001699  00000-0  15004-3 0  9992,2 55668  70.0009 170.4234 0002577 272.1476  87.9388 14.98349692 83086,6950.132,96.106,573.788,570.206,0.0
55668.0,STARLINK-5455,PAYLOAD,2024-08-13 13:25:27,14.98308844,0.0002472,70.002,169.586,271.2695,88.8181,-0.00027259,-3.342e-05,0.0,0 STARLINK-5455,1 55668U 23021AS  24226.55935052 -.00003342  00000-0 -27259-3 0  9990,2 55668  70.0020 169.5860 0002472 271.2695  88.8181 14.98308844 83131,6950.258,96.108,573.841,570.405,0.0
55668.0,STARLINK-5455,PAYLOAD,2024-08-13 23:02:19,14.98277772,0.0002756,70.0004,168.5724,272.4739,87.6105,-0.00049637,-6.002e-05,0.0,0 STARLINK-5455,1 55668U 23021AS  24226.95994332 -.00006002  00000-0 -49637-3 0  9990,2 55668  70.0004 168.5724 0002756 272.4739  87.6105 14.98277772 83495,6950.354,96.11,574.135,570.304,0.0
55668.0,STARLINK-5455,PAYLOAD,2024-08-14 13:27:28,14.98325745,0.0003178,70.0005,167.0579,271.1392,88.9403,-7.8703e-05,-1.032e-05,0.0,0 STARLINK-5455,1 55668U 23021AS  24227.56074875 -.00001032  00000-0 -78703-4 0  9994,2 55668  70.0005 167.0579 0003178 271.1392  88.9403 14.98325745 83587,6950.206,96.107,574.28,569.862,0.0
55668.0,STARLINK-5455,PAYLOAD,2024-08-14 21:28:08,14.98337911,0.0002699,70.0014,166.2158,274.6311,85.4539,3.8591e-05,3.68e-06,0.0,0 STARLINK-5455,1 55668U 23021AS  24227.89454036  .00000368  00000-0  38591-4 0  9991,2 55668  70.0014 166.2158 0002699 274.6311  85.4539 14.98337911 83633,6950.168,96.106,573.909,570.158,0.0
55668.0,STARLINK-5455,PAYLOAD,2024-08-15 03:52:40,14.98343117,0.0002769,70.0003,165.5417,275.9065,84.1779,9.2414e-05,1.01e-05,0.0,0 STARLINK-5455,1 55668U 23021AS  24228.16157508  .00001010  00000-0  92414-4 0  9995,2 55668  70.0003 165.5417 0002769 275.9065  84.1779 14.98343117 83377,6950.152,96.106,573.942,570.093,0.0
55668.0,STARLINK-5455,PAYLOAD,2024-08-15 13:29:28,14.98345936,0.0003333,70.0006,164.5333,269.6518,90.4259,3.6072e-05,3.38e-06,0.0,0 STARLINK-5455,1 55668U 23021AS  24228.56212990  .00000338  00000-0  36072-4 0  9996,2 55668  70.0006 164.5333 0003333 269.6518  90.4259 14.98345936 83731,6950.144,96.106,574.325,569.692,0.0
55668.0,STARLINK-5455,PAYLOAD,2024-08-15 21:30:09,14.98309582,0.0002944,70.0009,163.692,277.6838,82.3986,0.00062578,7.378e-05,0.0,0 STARLINK-5455,1 55668U 23021AS  24228.89594515  .00007378  00000-0  62578-3 0  9998,2 55668  70.0009 163.6920 0002944 277.6838  82.3986 14.98309582 83483,6950.256,96.108,574.167,570.075,0.0
55668.0,STARLINK-5455,PAYLOAD,2024-08-16 03:54:41,14.98318965,0.0002864,70.0006,163.018,276.8678,83.2155,0.00064132,7.565e-05,0.0,0 STARLINK-5455,1 55668U 23021AS  24229.16298154  .00007565  00000-0  64132-3 0  9995,2 55668  70.0006 163.0180 0002864 276.8678  83.2155 14.98318965 83524,6950.227,96.108,574.083,570.101,0.0
55668.0,STARLINK-5455,PAYLOAD,2024-08-16 05:30:49,14.98320619,0.0002811,70.0009,162.8496,275.9617,84.1221,0.00066784,7.883e-05,0.0,0 STARLINK-5455,1 55668U 23021AS  24229.22974050  .00007883  00000-0  66784-3 0  9996,2 55668  70.0009 162.8496 0002811 275.9617  84.1221 14.98320619 83836,6950.222,96.108,574.041,570.133,0.0
55668.0,STARLINK-5455,PAYLOAD,2024-08-16 21:32:10,14.98341229,0.0002992,69.9999,161.1655,274.4222,85.6595,1.159e-05,4.5e-07,0.0,0 STARLINK-5455,1 55668U 23021AS  24229.89733886  .00000045  00000-0  11590-4 0  9998,2 55668  69.9999 161.1655 0002992 274.4222  85.6595 14.98341229 83937,6950.158,96.106,574.103,569.944,0.0
55668.0,STARLINK-5455,PAYLOAD,2024-08-17 05:32:50,14.98341073,0.0002602,70.0016,160.3278,259.1666,100.9201,3.004e-06,-5.7e-07,0.0,0 STARLINK-5455,1 55668U 23021AS  24230.23113567 -.00000057  00000-0  30040-5 0  9992,2 55668  70.0016 160.3278 0002602 259.1666 100.9201 14.98341073 83686,6950.159,96.106,573.832,570.215,0.0
55668.0,STARLINK-5455,PAYLOAD,2024-08-18 05:34:50,14.98339218,0.0002627,70.0016,157.8041,258.2138,101.8726,-5.7238e-05,-7.76e-06,0.0,0 STARLINK-5455,1 55668U 23021AS  24231.23253144 -.00000776  00000-0 -57238-4 0  9995,2 55668  70.0016 157.8041 0002627 258.2138 101.8726 14.98339218 83833,6950.164,96.106,573.855,570.204,0.0
55668.0,STARLINK-5455,PAYLOAD,2024-08-18 21:36:11,14.98334533,0.0002456,70.0015,156.1186,254.6335,105.4553,2.2625e-05,1.77e-06,0.0,0 STARLINK-5455,1 55668U 23021AS  24231.90012950  .00000177  00000-0  22625-4 0  9992,2 55668  70.0015 156.1186 0002456 254.6335 105.4553 14.98334533 84231,6950.179,96.107,573.751,570.337,0.0
